[{"OBJECT_NAME":"STARLINK-4357","OBJECT_ID":"2022-105Q","EPOCH":"2026-03-09T16:04:00.382368","MEAN_MOTION":15.05650154,"ECCENTRICITY":0.00029035,"INCLINATION":97.602,"RA_OF_ASC_NODE":311.1286,"ARG_OF_PERICENTER":81.4497,"MEAN_ANOMALY":278.7059,"EPHEMERIS_TYPE":0,"CLASSIFICATION_TYPE":"U","NORAD_CAT_ID":53662,"ELEMENT_SET_NO":999,"REV_AT_EPOCH":19329,"BSTAR":1.5473544e-5,"MEAN_MOTION_DOT":1.62e-6,"MEAN_MOTION_DDOT":0},{"OBJECT_NAME":"COSMOS 2251 DEB","OBJECT_ID":"1993-036BYJ","EPOCH":"2026-02-27T08:25:05.077344","MEAN_MOTION":15.02778291,"ECCENTRICITY":0.0017194,"INCLINATION":74.0208,"RA_OF_ASC_NODE":84.7822,"ARG_OF_PERICENTER":181.9976,"MEAN_ANOMALY":194.0424,"EPHEMERIS_TYPE":0,"CLASSIFICATION_TYPE":"U","NORAD_CAT_ID":47116,"ELEMENT_SET_NO":999,"REV_AT_EPOCH":60660,"BSTAR":0.0017596726,"MEAN_MOTION_DOT":0.00023658,"MEAN_MOTION_DDOT":0}]
